COSMOS 1933             
1 18958U 88020A   22095.41695919  .00002287  00000+0  16169-3 0  9995
2 18958  82.5323 210.9804 0012586  78.2756 281.9881 15.04379667833826
SL-3 R/B                
1 19046U 88032B   22095.51763882  .00002023  00000+0  15061-3 0  9991
2 19046  97.3934  97.7091 0038644 125.7718 234.7111 15.03428223835652
SL-16 R/B               
1 19120U 88039B   22095.57499023  .00000041  00000+0  42149-4 0  9996
2 19120  71.0153 219.9657 0021269  13.7072 346.4626 14.19240956754885
COSMOS 1953             
1 19210U 88050A   22095.57469333  .00003840  00000+0  25465-3 0  9991
2 19210  82.5140 131.6738 0014066  36.9221 323.2972 15.06923298820580
SL-8 R/B                
1 19257U 88053B   22095.53286934  .00000235  00000+0  86967-4 0  9995
2 19257  74.0483 232.6956 0019701  46.9315  20.7784 14.37576003770425
COSMOS 1975             
1 19573U 88093A   22095.43105058  .00003221  00000+0  21971-3 0  9997
2 19573  82.5158  87.5189 0016201  83.8553 276.4520 15.05800203802297
SL-14 R/B               
1 19574U 88093B   22095.57681810  .00000423  00000+0  48371-4 0  9993
2 19574  82.5297 305.5347 0023089  94.7938 320.8403 14.83454637788288
SL-16 R/B               
1 19650U 88102B   22095.55137198  .00000001  00000+0  25026-4 0  9996
2 19650  70.9990 288.1446 0013108  25.9541 334.2237 14.15825713723888
INTERCOSMOS 24          
1 20261U 89080A   22095.57903512  .00000624  00000+0  18194-3 0  9993
2 20261  82.6007 314.9602 1202188  11.4192 351.1749 12.56322404486503
SL-14 R/B               
1 20262U 89080C   22095.28842405  .00000208  00000+0  60748-4 0  9996
2 20262  82.6000  13.1668 1235941 219.3784 131.0845 12.49038205480989
DELTA 2 R/B(1)          
1 20303U 89085B   22095.56330521  .00018894  00000+0  51174-3 0  9991
2 20303  35.6389 190.7433 0083836 276.2803  82.8382 15.33248929769253
DELTA 1 R/B             
1 20323U 89089B   22095.13313477  .00000283  00000+0  82327-4 0  9999
2 20323  97.0897 148.5817 0070625 326.3275  33.3444 14.48481595687926
ARIANE 40 R/B           
1 20443U 90005H   22095.43868840  .00000286  00000+0  10842-3 0  9999
2 20443  98.4893 164.0731 0010610 177.5485 182.5756 14.38194541686546
DELTA 2 R/B(1)          
1 20453U 90008B   22095.35205522  .00012606  00000+0  67120-3 0  9996
2 20453  35.6244 336.7345 0269642  36.8988 324.9956 14.88396507709007
COSMOS 2058             
1 20465U 90010A   22095.43842454  .00002034  00000+0  16683-3 0  9994
2 20465  82.4922   0.9481 0016186 140.9746 219.2649 14.98651832726691
SL-14 R/B               
1 20466U 90010B   22095.47856192  .00000406  00000+0  48738-4 0  9991
2 20466  82.5054 171.8663 0019899 343.1366  16.9184 14.81503636716008
SL-14 R/B               
1 20511U 90018B   22095.59733506  .00000359  00000+0  44061-4 0  9998
2 20511  82.5201 121.0824 0018807 120.1995 356.7586 14.80152094710314
HST                     
1 20580U 90037B   22095.60509640  .00003375  00000+0  19038-3 0  9993
2 20580  28.4702 291.3919 0002512 335.9093  66.7674 15.10230849555459
SL-16 R/B               
1 20625U 90046B   22095.39229085  .00000322  00000+0  19201-3 0  9992
2 20625  70.9985  69.2813 0015546 317.4619  42.5298 14.14684938645526
COSMOS 2084             
1 20663U 90055A   22095.55847878  .00001501  00000+0  14700-3 0  9997
2 20663  62.7919 133.4310 0110127  42.2477 318.7035 14.92601472721414
SL-6 R/B(2)             
1 20666U 90055D   22095.36574696  .00002893  00000+0  25506-3 0  9995
2 20666  62.7860  48.7969 0126345  65.2749 296.1434 14.92898172723347
SL-8 R/B                
1 20775U 90078B   22095.38915246  .00014467  00000+0  69216-3 0  9999
2 20775  82.9281  43.6231 0554983 315.1138  40.6405 14.38726541600015
SL-8 R/B                
1 21088U 91006B   22095.54962289  .00000102  00000+0  87584-4 0  9996
2 21088  82.9435 156.6792 0024096  91.8250  17.9823 13.77190975566651
OKEAN-3                 
1 21397U 91039A   22095.54026514  .00002103  00000+0  19693-3 0  9995
2 21397  82.5188 271.9215 0018761 127.3367 232.9566 14.93471347650293
COSMOS 2151             
1 21422U 91042A   22095.52107608  .00001525  00000+0  14591-3 0  9999
2 21422  82.5040  17.2477 0013576 191.1989 168.8931 14.92524674648806
SL-14 R/B               
1 21423U 91042B   22095.56382610  .00000352  00000+0  43536-4 0  9991
2 21423  82.4911 122.7334 0016018 265.9780  93.9602 14.79900809640842
ERS-1                   
1 21574U 91050A   22095.49250355  .00000218  00000+0  86529-4 0  9999
2 21574  98.6908  63.4605 0033658 133.3512 227.0488 14.37875917609534
ARIANE 40 R/B           
1 21610U 91050F   22095.42816637  .00000334  00000+0  11735-3 0  9999
2 21610  98.3863 166.3421 0004462  90.2697 280.7708 14.41024043612319
INTERCOSMOS 25          
1 21819U 91086A   22095.51359228  .00001539  00000+0  31586-3 0  9991
2 21819  82.5724  92.4609 1512903 311.4925  36.5543 12.05594716323449
SL-8 R/B                
1 21876U 92008B   22095.51543105  .00000032  00000+0  16738-4 0  9998
2 21876  82.9245 254.0218 0034914 177.5012 243.2199 13.75695068512213
SL-8 R/B                
1 21938U 92020B   22095.57708375  .00000010  00000+0 -51630-5 0  9997
2 21938  82.9287 138.7152 0028650 342.8920 126.0469 13.75305786503996
COSMOS 2219             
1 22219U 92076A   22095.50275653  .00000349  00000+0  20915-3 0  9996
2 22219  71.0581 135.1115 0019860 233.9451 125.9832 14.13681779515668
SL-16 R/B               
1 22220U 92076B   22095.42205297  .00000237  00000+0  14277-3 0  9996
2 22220  71.0019 328.6055 0011096 127.6262  45.5696 14.16490442518701
COSMOS 2221             
1 22236U 92080A   22095.39003198  .00001577  00000+0  16762-3 0  9999
2 22236  82.5108 202.7778 0015249 302.9571  57.0180 14.88330692566969
SL-16 R/B               
1 22285U 92093B   22095.50158601  .00000305  00000+0  18162-3 0  9994
2 22285  71.0196 134.0591 0005480 312.4482  47.6177 14.15077838510247
COSMOS 2228             
1 22286U 92094A   22095.44574922  .00001458  00000+0  15336-3 0  9997
2 22286  82.5213 159.7649 0022254  61.1854 299.1595 14.88572099562167
SL-16 R/B               
1 22566U 93016B   22095.42553586 -.00000006  00000+0  21708-4 0  9994
2 22566  71.0109 346.6876 0011162 334.2505  25.8060 14.15000755499263
COSMOS 2242             
1 22626U 93024A   22095.35538174  .00001568  00000+0  16593-3 0  9996
2 22626  82.5249 188.2445 0019993  61.9018 298.4217 14.88409893566530
SL-16 R/B               
1 22803U 93059B   22095.55489207  .00000272  00000+0  15943-3 0  9994
2 22803  70.9896 154.4509 0019207 238.9493 120.9745 14.16853541476374
ARIANE 40 R/B           
1 22830U 93061H   22095.20046037  .00000221  00000+0  99763-4 0  9996
2 22830  98.6709 158.1333 0010876 189.1202 170.9785 14.31528101489032
COSMOS 2278             
1 23087U 94023A   22095.52700284  .00000140  00000+0  98798-4 0  9993
2 23087  71.0519 294.2138 0007135  53.3047 306.8730 14.13850102442060
SL-16 R/B               
1 23088U 94023B   22095.56109367 -.00000031  00000+0  88069-5 0  9994
2 23088  71.0000 201.8741 0005020 296.2313  63.8293 14.14697121443241
SL-16 R/B               
1 23343U 94074B   22095.41771684  .00000444  00000+0  70187-4 0  9993
2 23343  97.9021 149.8949 0006794 180.8171 189.6555 14.76979534475382
SL-16 R/B               
1 23405U 94077B   22095.53260522 -.00000047  00000+0  28195-6 0  9996
2 23405  70.9815 128.8354 0003648 225.4665 134.6160 14.15256087413309
ERS-2                   
1 23560U 95021A   22095.27140423  .00008396  00000+0  33311-3 0  9993
2 23560  98.5117 350.5972 0004721  90.2213 269.9563 15.25670791442150
ARIANE 40+ R/B          
1 23561U 95021B   22095.41667286  .00000311  00000+0  11740-3 0  9992
2 23561  98.6314 152.4094 0008116 103.3954 278.2580 14.38109640412999
SL-16 R/B               
1 23705U 95058B   22095.53453697 -.00000080  00000+0 -16968-4 0  9997
2 23705  71.0229 310.2893 0011355 155.3191 204.8477 14.15170108364931
SL-16 R/B               
1 24298U 96051B   22095.36756842  .00000012  00000+0  32659-4 0  9996
2 24298  70.8199 325.0457 0013190 105.1362 255.1218 14.12402345319114
ORBVIEW 2 (SEASTAR)     
1 24883U 97037A   22095.57803944  .00000354  00000+0  14365-3 0  9992
2 24883  98.6682 218.7564 0001765 353.3982   6.7178 14.33699735302869
SL-16 R/B               
1 25400U 98043G   22095.42888920  .00000072  00000+0  48890-4 0  9995
2 25400  98.6679  32.3692 0009192 216.6409 143.4143 14.25503510234614
SL-16 R/B               
1 25407U 98045B   22095.03843437 -.00000236  00000+0 -95653-4 0  9998
2 25407  71.0120 317.6645 0005752  39.4451 320.7090 14.15854146224017
ISS (ZARYA)             
1 25544U 98067A   22095.72779924  .00013133  00000+0  23862-3 0  9999
2 25544  51.6453 335.4789 0004453 350.2024 114.7258 15.49886413333946
CZ-4B R/B               
1 25732U 99025C   22095.55316981  .00000042  00000+0  42311-4 0  9990
2 25732  98.8639 137.0920 0038163 134.8555 351.6391 14.17718628184925
OKEAN-O                 
1 25860U 99039A   22095.55679955  .00000632  00000+0  97507-4 0  9992
2 25860  98.1484 134.7603 0000836  86.7802 273.3503 14.76872672222491
SL-16 R/B               
1 25861U 99039B   22095.53550834  .00000550  00000+0  82291-4 0  9998
2 25861  98.1866 121.3027 0015113 202.7387 157.3156 14.78758729224721
DELTA 2 R/B             
1 25876U 99041E   22095.55053312  .00001914  00000+0  36380-3 0  9990
2 25876  51.7627 235.6932 0530881 100.9721 265.1374 14.04924311160973
HELIOS 1B               
1 25977U 99064A   22095.52232327  .00000748  00000+0  99812-4 0  9993
2 25977  98.3243 286.7792 0002086  60.1947 299.9472 14.82704285472472
TERRA                   
1 25994U 99068A   22095.56406463  .00000456  00000+0  11103-3 0  9996
2 25994  98.1416 169.1399 0001251  94.6628  44.3293 14.57133472185884
SL-16 R/B               
1 26070U 00006B   22095.52959862 -.00000101  00000+0 -27434-4 0  9992
2 26070  71.0024 232.4615 0017771 211.6718 148.3337 14.15484487145592
